GALAXY 37 (G-37)        
1 57493U 23112A   26202.59114189  .00000050  00000+0  00000+0 0  9990
2 57493   0.0179  61.2071 0002088  56.2976 267.6512  1.00272881 10882
LUDI TANCE-4 01A        
1 57624U 23120A   26202.71035515 -.00000170  00000+0  00000+0 0  9998
2 57624  15.0830 193.1123 0001637  10.7184  80.9673  1.00275179 10894
TJS-10                  
1 58204U 23169A   26202.75740781 -.00000249  00000+0  00000+0 0  9995
2 58204   2.6312  80.0778 0004117 111.8907 112.6248  1.00272465  9881
ZHONGXING-6E            
1 58253U 23172A   26200.35779580 -.00000366  00000+0  00000+0 0  9996
2 58253   0.0313  91.9638 0002926  19.0453  70.4510  1.00269836  9987
YAOGAN-41               
1 58582U 23197A   26202.64077373 -.00000357  00000+0  00000+0 0  9993
2 58582   3.0669 313.6917 0014070 200.2766 139.2688  1.00274525  9663
OVZON-3                 
1 58698U 24003A   26202.62811126  .00000053  00000+0  00000+0 0  9990
2 58698   0.0209 151.4240 0000193 281.1115 152.6492  1.00273316  7793
INSAT-3DS               
1 58990U 24033A   26202.64398487 -.00000153  00000+0  00000+0 0  9992
2 58990   0.0743 263.4911 0001334 220.4507 129.3411  1.00270756 47419
MERAH PUTIH 2           
1 58995U 24035A   26202.63869372 -.00000356  00000+0  00000+0 0  9999
2 58995   0.0191  74.9241 0001211  37.5184 169.8309  1.00271732  8938
TJS-11                  
1 59020U 24037A   26202.42476611 -.00000359  00000+0  00000+0 0  9991
2 59020   4.1548 327.5145 0002094 155.9226  81.2444  1.00271558  8923
HULIANWAN GAOGUI-01 (H*)
1 59069U 24040A   26202.62286204  .00000158  00000+0  00000+0 0  9993
2 59069   0.0746 333.5203 0001499  78.0650 145.6551  1.00268286  7676
EUTELSAT 36D            
1 59346U 24059A   26202.55216782  .00000000  00000+0  00000+0 0  9993
2 59346   0.0229  60.4841 0000158  21.3947  92.0734  1.00269031  8493
PAKSAT-MM1              
1 59915U 24104A   26202.26748733  .00000154  00000+0  00000+0 0  9990
2 59915   0.0325 176.6357 0002295 287.6169 329.2882  1.00277179  7862
ASTRA 1P (SES-24)       
1 60086U 24115A   26202.62008869  .00000121  00000+0  00000+0 0  9996
2 60086   0.0685 327.1694 0000831 216.0509 358.5855  1.00268338  7544
GOES 19                 
1 60133U 24119A   26202.60145528 -.00000247  00000+0  00000+0 0  9995
2 60133   0.0195 133.5182 0000310  43.2909 263.8789  1.00272391  7302
ZHONGXING-3A            
1 60179U 24122A   26202.64343522 -.00000313  00000+0  00000+0 0  9991
2 60179   0.0304 141.9517 0001631   8.8093 121.8492  1.00278565  7658
TURKSAT 6A              
1 60233U 24127A   26202.62464458  .00000148  00000+0  00000+0 0  9992
2 60233   0.0432 219.8905 0003134 306.7984  39.5371  1.00274113  7360
HULIANWAN GAOGUI-02 (H*)
1 60327U 24135A   26202.17614492 -.00000174  00000+0  00000+0 0  9990
2 60327   0.0480 355.1944 0006202  15.8185 144.3688  1.00270729  7842
ZHONGXING-4A            
1 60606U 24151A   26202.63617529 -.00000359  00000+0  00000+0 0  9998
2 60606   1.2269 270.4173 0000034 309.3718  66.8499  1.00272552  7106
HULIANWAN GAOGUI-03 (H*)
1 61503U 24181A   26202.17331639 -.00000240  00000+0  00000+0 0  9991
2 61503   0.0525 357.5711 0001302  93.5896 193.0031  1.00267107  7169
DSN-3 (KIRAMEKI-3)      
1 61733U 24198A   26202.64484708 -.00000248  00000+0  00000+0 0  9990
2 61733   0.0357 240.8466 0001141 259.0223 175.7371  1.00271003  6266
KOREASAT 6A             
1 61910U 24206A   26202.11155734 -.00000361  00000+0  00000+0 0  9999
2 61910   0.0276 102.0417 0001059 340.7952  12.2140  1.00272700  6188
OPTUS-X (ADS-01)        
1 62006U 24212A   26202.57597515 -.00000141  00000+0  00000+0 0  9996
2 62006   0.0434 258.5956 0002439 240.7948 163.6982  1.00272584  6100
GSAT-N2 (GSAT-20)       
1 62028U 24214A   26202.62975793 -.00000017  00000+0  00000+0 0  9998
2 62028   0.0587 259.6034 0002724 152.3647 182.0654  1.00272796  6244
SXM-9                   
1 62259U 24234A   26202.59946193 -.00000203  00000+0  00000+0 0  9991
2 62259   0.0188 334.3500 0004718 346.9909 108.6516  1.00271223  5911
TJS-12                  
1 62374U 24246A   26202.63308716 -.00000230  00000+0  00000+0 0  9990
2 62374   0.5979 302.8761 0001938 104.1181 266.7569  1.00268059  5904
NUVIEW ALPHA            
1 62455U 24252B   26202.52859437 -.00000214  00000+0  00000+0 0  9998
2 62455   0.0382   9.7873 0001173  86.7965 309.8988  1.00271777  4162
AGILA                   
1 62456U 24252C   26202.57519514 -.00000180  00000+0  00000+0 0  9995
2 62456   0.0382 144.6824 0001477 338.1305 175.7512  1.00271303  5504
NUVIEW BRAVO            
1 62457U 24252D   26202.52859437 -.00000214  00000+0  00000+0 0  9990
2 62457   0.0668 175.0027 0001916 332.7598 258.7140  1.00274952  4137
THURAYA-4               
1 62483U 25001A   26202.26870067  .00000140  00000+0  00000+0 0  9992
2 62483   0.0215  77.5646 0000260  72.3689 290.1415  1.00272460  4515
SHIJIAN-25 (SJ-25)      
1 62485U 25002A   26202.53794919 -.00000352  00000+0  00000+0 0  9992
2 62485   5.1929  60.9454 0050795 176.6777  22.4880  1.00276816  5705
TJS-14                  
1 62804U 25017A   26202.61991536  .00000117  00000+0  00000+0 0  9994
2 62804   0.7067 298.2881 0001830 303.1925 299.4229  1.00270520  5611
