OBJECT_NAME,OBJECT_ID,EPOCH,MEAN_MOTION,ECCENTRICITY,INCLINATION,RA_OF_ASC_NODE,ARG_OF_PERICENTER,MEAN_ANOMALY,EPHEMERIS_TYPE,CLASSIFICATION_TYPE,NORAD_CAT_ID,ELEMENT_SET_NO,REV_AT_EPOCH,BSTAR,MEAN_MOTION_DOT,MEAN_MOTION_DDOT
GALAXY 37 (G-37),2023-112A,2026-07-21T14:11:14.659296,1.00272881,.00020883,0.0179,61.2071,56.2976,267.6512,0,U,57493,999,1088,0,.5E-6,0
LUDI TANCE-4 01A,2023-120A,2026-07-21T17:02:54.684960,1.00275179,.0001637,15.0830,193.1123,10.7184,80.9673,0,U,57624,999,1089,0,-.17E-5,0
TJS-10,2023-169A,2026-07-21T18:10:40.034784,1.00272465,.0004117,2.6312,80.0778,111.8907,112.6248,0,U,58204,999,988,0,-.249E-5,0
ZHONGXING-6E,2023-172A,2026-07-19T08:35:13.557120,1.00269836,.00029267,0.0313,91.9638,19.0453,70.4510,0,U,58253,999,998,0,-.366E-5,0
YAOGAN-41,2023-197A,2026-07-21T15:22:42.850272,1.00274525,.00140708,3.0669,313.6917,200.2766,139.2688,0,U,58582,999,966,0,-.357E-5,0
OVZON-3,2024-003A,2026-07-21T15:04:28.812864,1.00273316,.00001935,0.0209,151.4240,281.1115,152.6492,0,U,58698,999,779,0,.53E-6,0
INSAT-3DS,2024-033A,2026-07-21T15:27:20.292768,1.00270756,.00013342,0.0743,263.4911,220.4507,129.3411,0,U,58990,999,4741,0,-.153E-5,0
MERAH PUTIH 2,2024-035A,2026-07-21T15:19:43.137408,1.00271732,.00012117,0.0191,74.9241,37.5184,169.8309,0,U,58995,999,893,0,-.356E-5,0
TJS-11,2024-037A,2026-07-21T10:11:39.791904,1.00271558,.0002094,4.1548,327.5145,155.9226,81.2444,0,U,59020,999,892,0,-.359E-5,0
HULIANWAN GAOGUI-01 (HG-01),2024-040A,2026-07-21T14:56:55.280256,1.00268286,.00014995,0.0746,333.5203,78.0650,145.6551,0,U,59069,999,767,0,.158E-5,0
EUTELSAT 36D,2024-059A,2026-07-21T13:15:07.299648,1.00269031,.0000158,0.0229,60.4841,21.3947,92.0734,0,U,59346,999,849,0,0,0
PAKSAT-MM1,2024-104A,2026-07-21T06:25:10.905312,1.00277179,.00022957,0.0325,176.6357,287.6169,329.2882,0,U,59915,999,786,0,.154E-5,0
ASTRA 1P (SES-24),2024-115A,2026-07-21T14:52:55.662816,1.00268338,.00008317,0.0685,327.1694,216.0509,358.5855,0,U,60086,999,754,0,.121E-5,0
GOES 19,2024-119A,2026-07-21T14:26:05.736192,1.00272391,.000031,0.0195,133.5182,43.2909,263.8789,0,U,60133,999,730,0,-.247E-5,0
ZHONGXING-3A,2024-122A,2026-07-21T15:26:32.803008,1.00278565,.0001631,0.0304,141.9517,8.8093,121.8492,0,U,60179,999,765,0,-.313E-5,0
TURKSAT 6A,2024-127A,2026-07-21T14:59:29.291712,1.00274113,.00031343,0.0432,219.8905,306.7984,39.5371,0,U,60233,999,736,0,.148E-5,0
HULIANWAN GAOGUI-02 (HG-02),2024-135A,2026-07-21T04:13:38.921088,1.00270729,.00062025,0.0480,355.1944,15.8185,144.3688,0,U,60327,999,784,0,-.174E-5,0
ZHONGXING-4A,2024-151A,2026-07-21T15:16:05.545056,1.00272552,.00000342,1.2269,270.4173,309.3718,66.8499,0,U,60606,999,710,0,-.359E-5,0
HULIANWAN GAOGUI-03 (HG-03),2024-181A,2026-07-21T04:09:34.536096,1.00267107,.00013025,0.0525,357.5711,93.5896,193.0031,0,U,61503,999,716,0,-.24E-5,0
DSN-3 (KIRAMEKI-3),2024-198A,2026-07-21T15:28:34.787712,1.00271003,.00011419,0.0357,240.8466,259.0223,175.7371,0,U,61733,999,626,0,-.248E-5,0
KOREASAT 6A,2024-206A,2026-07-21T02:40:38.554176,1.00272700,.00010594,0.0276,102.0417,340.7952,12.2140,0,U,61910,999,618,0,-.361E-5,0
OPTUS-X (ADS-01),2024-212A,2026-07-21T13:49:24.252960,1.00272584,.00024395,0.0434,258.5956,240.7948,163.6982,0,U,62006,999,610,0,-.141E-5,0
GSAT-N2 (GSAT-20),2024-214A,2026-07-21T15:06:51.085152,1.00272796,.00027246,0.0587,259.6034,152.3647,182.0654,0,U,62028,999,624,0,-.17E-6,0
SXM-9,2024-234A,2026-07-21T14:23:13.510752,1.00271223,.0004718,0.0188,334.3500,346.9909,108.6516,0,U,62259,999,591,0,-.203E-5,0
TJS-12,2024-246A,2026-07-21T15:11:38.730624,1.00268059,.00019387,0.5979,302.8761,104.1181,266.7569,0,U,62374,999,590,0,-.23E-5,0
NUVIEW ALPHA,2024-252B,2026-07-21T12:41:10.553568,1.00271777,.00011732,0.0382,9.7873,86.7965,309.8988,0,U,62455,999,416,0,-.214E-5,0
AGILA,2024-252C,2026-07-21T13:48:16.860096,1.00271303,.00014776,0.0382,144.6824,338.1305,175.7512,0,U,62456,999,550,0,-.18E-5,0
NUVIEW BRAVO,2024-252D,2026-07-21T12:41:10.553568,1.00274952,.00019168,0.0668,175.0027,332.7598,258.7140,0,U,62457,999,413,0,-.214E-5,0
THURAYA-4,2025-001A,2026-07-21T06:26:55.737888,1.00272460,.000026,0.0215,77.5646,72.3689,290.1415,0,U,62483,999,451,0,.14E-5,0
SHIJIAN-25 (SJ-25),2025-002A,2026-07-21T12:54:38.810016,1.00276816,.0050795,5.1929,60.9454,176.6777,22.4880,0,U,62485,999,570,0,-.352E-5,0
TJS-14,2025-017A,2026-07-21T14:52:40.687104,1.00270520,.00018306,0.7067,298.2881,303.1925,299.4229,0,U,62804,999,561,0,.117E-5,0
